satname,norad_id,inclination_deg,eccentricity,mean_motion_rev_per_day,perigee_km,apogee_km,l1,l2
STARLINK-1407,45703,53.0421,0.0010407,15.37020733,447.81377184773646,462.0361069684204,1 45703U 20035AY  25283.51373845  .00024000  00000+0  66052-3 0  9992,2 45703  53.0421 314.2664 0010407 324.7813  35.2500 15.37020733297039
STARLINK-1411,45706,53.0558,0.0001145,15.34637169,461.2152192384028,462.78161024837846,1 45706U 20035BB  25283.91670139  .00111626  00000+0  32414-2 0  9990,2 45706  53.0558 339.2733 0001145  52.0392  73.9571 15.34637169  5868
STARLINK-1423,45710,53.0549,0.0001357,15.06398114,546.2775676789734,548.157108846377,1 45710U 20035BF  25283.55729928 -.00000808  00000+0 -35335-4 0  9994,2 45710  53.0549 350.5927 0001357  83.5764 276.5380 15.06398114296528
STARLINK-1433,45711,53.0544,0.0001223,15.06423224,546.2934192139373,547.9873420612403,1 45711U 20035BG  25283.60519231  .00003688  00000+0  26616-3 0  9993,2 45711  53.0544 350.3743 0001223  93.9163 266.1966 15.06423224296524
STARLINK-1434,45712,53.0531,0.0001579,15.13423804,524.6777822240147,526.858035394218,1 45712U 20035BH  25283.48134257  .00024395  00000+0  13619-2 0  9997,2 45712  53.0531 348.2751 0001579 345.8204  14.2744 15.13423804296556
STARLINK-1465,45731,53.0538,0.0001972,15.0640367,545.8346334221696,548.565986457209,1 45731U 20038B   25283.77108477  .00003895  00000+0  28025-3 0  9998,2 45731  53.0538 189.6292 0001972  86.2060 273.9154 15.06403670293595
STARLINK-1471,45735,53.0502,0.0003469,15.39806158,444.3145000874192,449.04955953030185,1 45735U 20038F   25283.85581959  .00017785  00000+0  45076-3 0  9999,2 45735  53.0502 134.4802 0003469 115.4840 244.6523 15.39806158294386
STARLINK-1474,45738,53.0373,0.0004578,15.63337914,374.9301589769948,381.1160991911838,1 45738U 20038J   25283.77266398  .00066331  00000+0  70772-3 0  9992,2 45738  53.0373  95.9362 0004578 194.4431 165.6452 15.63337914294910
STARLINK-1475,45739,53.0523,0.0002398,15.6741639,364.68087102826667,367.91550214375275,1 45739U 20038K   25283.91670139  .00208288  00000+0  18466-2 0  9991,2 45739  53.0523  62.7752 0002398 215.3366  73.8310 15.67416390  5802
STARLINK-1480,45741,53.0529,0.0001332,15.06416109,546.2397367617095,548.0846364650233,1 45741U 20038M   25283.75265438  .00009938  00000+0  68485-3 0  9996,2 45741  53.0529 189.7137 0001332  86.8271 273.2871 15.06416109293607
STARLINK-1500,45744,53.041,0.000504,15.26490982,482.852263927708,489.77162846547435,1 45744U 20038Q   25283.68485744  .00017183  00000+0  66124-3 0  9994,2 45744  53.0410 171.8470 0005040 122.7617 237.3867 15.26490982293840
STARLINK-1504,45746,53.0273,0.0006403,15.36978587,450.6745637347276,459.4251428190337,1 45746U 20038S   25283.59323766  .00064193  00000+0  17438-2 0  9997,2 45746  53.0273 138.6648 0006403 104.3399 255.8314 15.36978587294299
STARLINK-1506,45747,53.0491,0.0004762,15.20588344,500.7875017983433,507.34211079866236,1 45747U 20038T   25283.03298816  .00007407  00000+0  34809-3 0  9991,2 45747  53.0491 176.4295 0004762 145.2715 214.8592 15.20588344293723
STARLINK-1464,45751,53.0536,0.0001233,15.06405984,546.3393246849755,548.0471111167099,1 45751U 20038X   25283.42276897  .00010699  00000+0  73594-3 0  9995,2 45751  53.0536 171.1932 0001233  94.6501 265.4628 15.06405984293834
STARLINK-1477,45754,53.0526,0.0001419,15.06391763,546.2540927292821,548.2195138146517,1 45754U 20038AA  25283.70289083  .00011922  00000+0  81807-3 0  9996,2 45754  53.0526 169.9345 0001419 100.8342 259.2807 15.06391763293871
STARLINK-1478,45755,53.0499,6.96e-05,15.06414306,546.6857112477255,547.6497136636999,1 45755U 20038AB  25283.38958610  .00005871  00000+0  41254-3 0  9998,2 45755  53.0499 171.3458 0000696 124.9855 235.1200 15.06414306293818
STARLINK-1484,45756,53.0139,0.0003913,15.56741303,394.44444674148144,399.74674377052906,1 45756U 20038AC  25283.74125587  .00083023  00000+0  11351-2 0  9997,2 45756  53.0139  83.1780 0003913 151.9290 208.1932 15.56741303295084
STARLINK-1493,45759,53.0523,0.0001442,15.06391239,546.2397701375812,548.2370484056155,1 45759U 20038AF  25283.71025875  .00001390  00000+0  11223-3 0  9992,2 45759  53.0523 169.9027 0001442  80.8798 279.2355 15.06391239293865
STARLINK-1494,45760,53.0534,0.0001077,15.49366357,417.8465294940597,419.3105420204629,1 45760U 20038AG  25283.91670139  .00207388  00000+0  36311-2 0  9994,2 45760  53.0534 160.5019 0001077  97.2370 306.0754 15.49366357  5749
STARLINK-1502,45764,53.0529,0.0001248,15.06407009,546.3257956269081,548.0543572651895,1 45764U 20038AL  25283.41170885  .00010109  00000+0  69642-3 0  9993,2 45764  53.0529 171.2408 0001248  91.4846 268.6286 15.06407009293837
STARLINK-1470,45772,53.0489,0.0004558,15.16065058,514.6038842255339,520.890172105609,1 45772U 20038AU  25283.87550271  .00009285  00000+0  49205-3 0  9999,2 45772  53.0489 143.1540 0004558 139.1558 220.9777 15.16065058294262
STARLINK-1482,45773,53.0529,0.0001555,15.06397415,546.1425876695648,548.2963735350313,1 45773U 20038AV  25283.64208494  .00003292  00000+0  23980-3 0  9996,2 45773  53.0529 150.2090 0001555  91.7976 268.3191 15.06397415294145
STARLINK-1485,45774,53.0428,9.5e-05,15.8944299,303.2087204090585,304.47829670568353,1 45774U 20038AW  25283.91670139  .00464304  00000+0  14789-2 0  9997,2 45774  53.0428  90.2439 0000950 286.6272 129.4976 15.89442990  5931
STARLINK-1496,45780,53.0524,0.0001351,15.06400176,546.2754040063746,548.1466330409812,1 45780U 20038BC  25283.34350861  .00002942  00000+0  21632-3 0  9990,2 45780  53.0524 151.5483 0001351  95.6002 264.5141 15.06400176294080
STARLINK-1497,45781,53.0416,0.0010951,15.4739236,416.9082420925206,431.807065883685,1 45781U 20038BD  25283.91670139  .00097697  00000+0  18593-2 0  9999,2 45781  53.0416 100.8497 0010951 148.0476  78.5355 15.47392360  5841
STARLINK-1510,45784,53.0349,0.0006504,15.6231971,376.562137168964,385.3543682737045,1 45784U 20038BG  25283.91670139  .00219859  00000+0  23808-2 0  9993,2 45784  53.0349  79.3271 0006504 112.7678 308.8854 15.62319710  5882
STARLINK-1513,45786,53.0545,0.0001553,15.06404453,546.122405656698,548.2734146797966,1 45786U 20038BJ  25283.04125372  .00002462  00000+0  18412-3 0  9999,2 45786  53.0545 152.9076 0001553  86.5468 273.5698 15.06404453294057
STARLINK-1522,46027,53.0551,0.0001221,15.06390946,546.3937188361297,548.0848957303688,1 46027U 20055A   25283.81806902 -.00000685  00000+0 -27093-4 0  9990,2 46027  53.0551  79.4150 0001221 100.7944 259.3182 15.06390946286297
